NORAD_CAT_ID,OBJECT_NAME,OBJECT_TYPE,EPOCH,MEAN_MOTION,ECCENTRICITY,INCLINATION,RA_OF_ASC_NODE,ARG_OF_PERICENTER,MEAN_ANOMALY,BSTAR,MEAN_MOTION_DOT,MEAN_MOTION_DDOT,TLE_LINE0,TLE_LINE1,TLE_LINE2,SEMIMAJOR_AXIS,PERIOD,APOGEE,PERIGEE,DECAYED
55404.0,STARLINK-5607,PAYLOAD,2023-08-13 15:41:11,14.99300725,0.0003399,69.9981,272.2278,269.191,90.886,9.9391e-06,2.8e-07,0.0,0 STARLINK-5607,1 55404U 23014P   23225.65360493  .00000028  00000-0  99391-5 0  9994,2 55404  69.9981 272.2278 0003399 269.1910  90.8860 14.99300725 30457,6947.193,96.045,571.419,566.696,0.0
55404.0,STARLINK-5607,PAYLOAD,2023-08-14 15:42:16,14.9930157,0.000344,69.9979,269.6998,270.1002,89.9763,1.1775e-05,5e-07,0.0,0 STARLINK-5607,1 55404U 23014P   23226.65435628  .00000050  00000-0  11775-4 0  9992,2 55404  69.9979 269.6998 0003440 270.1002  89.9763 14.99301570 30601,6947.19,96.045,571.445,566.665,0.0
55404.0,STARLINK-5607,PAYLOAD,2023-08-16 02:55:51,14.9929973,0.0003474,69.9982,265.9928,269.4686,90.6075,1.4266e-05,8.1e-07,0.0,0 STARLINK-5607,1 55404U 23014P   23228.12212591  .00000081  00000-0  14266-4 0  9990,2 55404  69.9982 265.9928 0003474 269.4686  90.6075 14.99299730 30826,6947.196,96.045,571.474,566.647,0.0
55404.0,STARLINK-5607,PAYLOAD,2023-08-17 10:57:18,14.99298246,0.0003339,69.9987,262.6236,270.9357,89.142,1.8733e-05,1.35e-06,0.0,0 STARLINK-5607,1 55404U 23014P   23229.45646194  .00000135  00000-0  18733-4 0  9990,2 55404  69.9987 262.6236 0003339 270.9357  89.1420 14.99298246 31020,6947.2,96.045,571.385,566.746,0.0
55404.0,STARLINK-5607,PAYLOAD,2023-08-18 10:58:23,14.99296542,0.0003333,69.9992,260.0967,268.6044,91.4733,-2.0129e-05,-3.4e-06,0.0,0 STARLINK-5607,1 55404U 23014P   23230.45721587 -.00000340  00000-0 -20129-4 0  9994,2 55404  69.9992 260.0967 0003333 268.6044  91.4733 14.99296542 31176,6947.206,96.045,571.386,566.755,0.0
55404.0,STARLINK-5607,PAYLOAD,2023-08-19 10:59:28,14.99300634,0.0003457,69.9991,257.5698,269.1126,90.9638,4.7004e-06,-3.6e-07,0.0,0 STARLINK-5607,1 55404U 23014P   23231.45796415 -.00000036  00000-0  47004-5 0  9990,2 55404  69.9991 257.5698 0003457 269.1126  90.9638 14.99300634 31324,6947.193,96.045,571.46,566.656,0.0
55404.0,STARLINK-5607,PAYLOAD,2023-08-20 11:00:33,14.99297429,0.000351,69.9989,255.0429,267.615,92.4607,9.3375e-06,2e-07,0.0,0 STARLINK-5607,1 55404U 23014P   23232.45871831  .00000020  00000-0  93375-5 0  9991,2 55404  69.9989 255.0429 0003510 267.6150  92.4607 14.99297429 31472,6947.203,96.045,571.506,566.629,0.0
55404.0,STARLINK-5607,PAYLOAD,2023-08-21 11:01:38,14.99300728,0.0003365,69.9993,252.5154,266.4641,93.6133,-1.3428e-05,-2.58e-06,0.0,0 STARLINK-5607,1 55404U 23014P   23233.45946897 -.00000258  00000-0 -13428-4 0  9992,2 55404  69.9993 252.5154 0003365 266.4641  93.6133 14.99300728 31625,6947.193,96.045,571.395,566.72,0.0
55404.0,STARLINK-5607,PAYLOAD,2023-08-22 11:02:42,14.99303507,0.0003297,69.9993,249.9878,288.2958,71.7843,3.7976e-05,3.71e-06,0.0,0 STARLINK-5607,1 55404U 23014P   23234.46021957  .00000371  00000-0  37976-4 0  9993,2 55404  69.9993 249.9878 0003297 288.2958  71.7843 14.99303507 31774,6947.184,96.045,571.34,566.759,0.0
55404.0,STARLINK-5607,PAYLOAD,2023-08-23 01:27:19,14.99300892,0.0003886,70.0003,248.4715,266.6795,93.392,0.00086962,0.00010563,0.0,0 STARLINK-5607,1 55404U 23014P   23235.06064728  .00010563  00000-0  86962-3 0  9995,2 55404  70.0003 248.4715 0003886 266.6795  93.3920 14.99300892 31866,6947.192,96.045,571.757,566.357,0.0
55404.0,STARLINK-5607,PAYLOAD,2023-08-23 11:03:47,14.99313904,0.0003321,69.999,247.4613,267.2395,92.8384,-0.00027024,-3.4e-05,0.0,0 STARLINK-5607,1 55404U 23014P   23235.46096875 -.00003400  00000-0 -27024-3 0  9995,2 55404  69.9990 247.4613 0003321 267.2395  92.8384 14.99313904 31924,6947.152,96.044,571.324,566.71,0.0
55404.0,STARLINK-5607,PAYLOAD,2023-08-24 22:00:00,14.9829738,0.0003061,70.0007,243.7912,267.4362,24.1545,0.0051473,0.00061816,0.0,0 STARLINK-5607,1 55404U 23014P   23236.91667824  .00061816  00000-0  51473-2 0  9991,2 55404  70.0007 243.7912 0003061 267.4362  24.1545 14.98297380 32144,6950.294,96.109,574.286,570.031,0.0
55404.0,STARLINK-5607,PAYLOAD,2023-08-25 14:00:01,14.98348605,0.0002987,70.0004,242.1103,273.3992,13.1506,-0.0035223,-0.00041891,0.0,0 STARLINK-5607,1 55404U 23014P   23237.58334491 -.00041891  00000-0 -35223-2 0  9994,2 55404  70.0004 242.1103 0002987 273.3992  13.1506 14.98348605 32240,6950.135,96.106,574.076,569.924,0.0
55404.0,STARLINK-5607,PAYLOAD,2023-08-26 00:00:02,14.98325055,0.0002975,70.0006,241.0598,266.054,107.4111,0.001907,0.00022732,0.0,0 STARLINK-5607,1 55404U 23014P   23238.00002315  .00022732  00000-0  19070-2 0  9992,2 55404  70.0006 241.0598 0002975 266.0540 107.4111 14.98325055  5853,6950.208,96.107,574.141,570.005,0.0
55404.0,STARLINK-5607,PAYLOAD,2023-08-26 06:00:00,14.98336421,0.0003018,70.0006,240.4294,270.7176,10.8013,-0.001673,-0.00020001,0.0,0 STARLINK-5607,1 55404U 23014P   23238.25001157 -.00020001  00000-0 -16730-2 0  9991,2 55404  70.0006 240.4294 0003018 270.7176  10.8013 14.98336421 32346,6950.173,96.107,574.136,569.94,0.0
55404.0,STARLINK-5607,PAYLOAD,2023-08-26 14:00:01,14.98347997,0.000301,70.0001,239.589,272.9139,6.0829,-0.0037699,-0.00044809,0.0,0 STARLINK-5607,1 55404U 23014P   23238.58334491 -.00044809  00000-0 -37699-2 0  9996,2 55404  70.0001 239.5890 0003010 272.9139   6.0829 14.98347997  5800,6950.137,96.106,574.094,569.91,0.0
55404.0,STARLINK-5607,PAYLOAD,2023-08-27 00:00:00,14.98327514,0.0003016,70.0004,238.5385,266.1706,99.6765,0.0015253,0.00018153,0.0,0 STARLINK-5607,1 55404U 23014P   23239.00001157  .00018153  00000-0  15253-2 0  9997,2 55404  70.0004 238.5385 0003016 266.1706  99.6765 14.98327514  5868,6950.201,96.107,574.162,569.969,0.0
55404.0,STARLINK-5607,PAYLOAD,2023-08-27 06:00:02,14.98335197,0.0003063,70.0003,237.9081,270.7173,3.3105,-0.001498,-0.00017924,0.0,0 STARLINK-5607,1 55404U 23014P   23239.25002315 -.00017924  00000-0 -14980-2 0  9994,2 55404  70.0003 237.9081 0003063 270.7173   3.3105 14.98335197 32499,6950.177,96.107,574.171,569.913,0.0
55404.0,STARLINK-5607,PAYLOAD,2023-08-27 14:00:01,14.98348564,0.0003078,69.9999,237.0676,272.3883,359.0537,-0.0038845,-0.00046161,0.0,0 STARLINK-5607,1 55404U 23014P   23239.58334491 -.00046161  00000-0 -38845-2 0  9994,2 55404  69.9999 237.0676 0003078 272.3883 359.0537 14.98348564  5473,6950.135,96.106,574.14,569.861,0.0
55404.0,STARLINK-5607,PAYLOAD,2023-08-27 22:00:00,14.98304958,0.0003088,70.0,236.2272,266.3976,2.5331,0.004335,0.00051983,0.0,0 STARLINK-5607,1 55404U 23014P   23239.91667824  .00051983  00000-0  43350-2 0  9993,2 55404  70.0000 236.2272 0003088 266.3976   2.5331 14.98304958  5526,6950.27,96.109,574.282,569.989,0.0
55404.0,STARLINK-5607,PAYLOAD,2023-08-28 01:36:37,14.98328281,0.0002958,69.9989,235.8481,268.011,92.071,-2.3805e-06,-1.21e-06,0.0,0 STARLINK-5607,1 55404U 23014P   23240.06710178 -.00000121  00000-0 -23805-5 0  9998,2 55404  69.9989 235.8481 0002958 268.0110  92.0710 14.98328281 32610,6950.198,96.107,574.119,570.007,0.0
55404.0,STARLINK-5607,PAYLOAD,2023-08-28 17:37:58,14.98329187,0.0003014,69.9989,234.1646,269.7519,90.3295,1.4633e-05,8.2e-07,0.0,0 STARLINK-5607,1 55404U 23014P   23240.73470107  .00000082  00000-0  14633-4 0  9999,2 55404  69.9989 234.1646 0003014 269.7519  90.3295 14.98329187 33650,6950.195,96.107,574.155,569.966,0.0
55404.0,STARLINK-5607,PAYLOAD,2023-08-29 01:38:38,14.98330601,0.0003033,69.9989,233.3231,269.9559,90.1253,1.9768e-05,1.43e-06,0.0,0 STARLINK-5607,1 55404U 23014P   23241.06849993  .00000143  00000-0  19768-4 0  9991,2 55404  69.9989 233.3231 0003033 269.9559  90.1253 14.98330601 32764,6950.191,96.107,574.164,569.948,0.0
55404.0,STARLINK-5607,PAYLOAD,2023-08-29 09:39:18,14.98332143,0.000303,69.9989,232.4815,270.1918,89.8893,3.5283e-05,3.28e-06,0.0,0 STARLINK-5607,1 55404U 23014P   23241.40229826  .00000328  00000-0  35283-4 0  9991,2 55404  69.9989 232.4815 0003030 270.1918  89.8893 14.98332143 33750,6950.186,96.107,574.157,569.945,0.0
55404.0,STARLINK-5607,PAYLOAD,2023-08-30 01:40:39,14.98329949,0.0003016,69.999,230.7984,270.2971,89.7843,1.0326e-05,3e-07,0.0,0 STARLINK-5607,1 55404U 23014P   23242.06989978  .00000030  00000-0  10326-4 0  9996,2 55404  69.9990 230.7984 0003016 270.2971  89.7843 14.98329949 32915,6950.193,96.107,574.154,569.962,0.0
55404.0,STARLINK-5607,PAYLOAD,2023-08-30 16:05:51,14.98331565,0.0002963,69.9993,229.2836,271.2855,88.7965,1.2316e-05,5.4e-07,0.0,0 STARLINK-5607,1 55404U 23014P   23242.67073820  .00000054  00000-0  12316-4 0  9990,2 55404  69.9993 229.2836 0002963 271.2855  88.7965 14.98331565 33944,6950.188,96.107,574.112,569.994,0.0
55404.0,STARLINK-5607,PAYLOAD,2023-08-31 04:54:56,14.98332324,0.0002952,69.9994,227.9371,271.337,88.7451,-3.4101e-06,-1.34e-06,0.0,0 STARLINK-5607,1 55404U 23014P   23243.20481724 -.00000134  00000-0 -34101-5 0  9994,2 55404  69.9994 227.9371 0002952 271.3370  88.7451 14.98332324 33084,6950.186,96.107,574.102,569.999,0.0
55404.0,STARLINK-5607,PAYLOAD,2023-09-01 09:45:21,14.98334105,0.0002734,69.9994,224.908,266.9133,93.1713,-9.0272e-05,-1.17e-05,0.0,0 STARLINK-5607,1 55404U 23014P   23244.40649736 -.00001170  00000-0 -90272-4 0  9997,2 55404  69.9994 224.9080 0002734 266.9133  93.1713 14.98334105 33263,6950.18,96.107,573.945,570.145,0.0
55404.0,STARLINK-5607,PAYLOAD,2023-09-01 16:09:53,14.98330046,0.000303,69.9996,224.2344,270.6607,89.4205,-1.2161e-05,-2.38e-06,0.0,0 STARLINK-5607,1 55404U 23014P   23244.67353753 -.00000238  00000-0 -12161-4 0  9992,2 55404  69.9996 224.2344 0003030 270.6607  89.4205 14.98330046 34242,6950.193,96.107,574.164,569.952,0.0
55404.0,STARLINK-5607,PAYLOAD,2023-09-02 08:11:14,14.98330334,0.000293,69.998,222.5508,270.2468,89.8356,8.3785e-06,7e-08,0.0,0 STARLINK-5607,1 55404U 23014P   23245.34113663  .00000007  00000-0  83785-5 0  9994,2 55404  69.9980 222.5508 0002930 270.2468  89.8356 14.98330334 34349,6950.192,96.107,574.093,570.02,0.0
